{
    "links": {
        "self": "http://www.neowsapp.com/rest/v1/neo/3345303?api_key=iIulBulltgU6a56xZRHN4H3l9WmuAYTsLGpBGhQ2"
    },
    "id": "3345303",
    "neo_reference_id": "3345303",
    "name": "(2006 SS131)",
    "designation": "2006 SS131",
    "nasa_jpl_url": "http://ssd.jpl.nasa.gov/sbdb.cgi?sstr=3345303",
    "absolute_magnitude_h": 25.7,
    "estimated_diameter": {
        "kilometers": {
            "estimated_diameter_min": 0.0192555078,
            "estimated_diameter_max": 0.0430566244
        },
        "meters": {
            "estimated_diameter_min": 19.2555078188,
            "estimated_diameter_max": 43.0566244241
        },
        "miles": {
            "estimated_diameter_min": 0.0119648141,
            "estimated_diameter_max": 0.0267541378
        },
        "feet": {
            "estimated_diameter_min": 63.1742402722,
            "estimated_diameter_max": 141.2618956756
        }
    },
    "is_potentially_hazardous_asteroid": false,
    "close_approach_data": [
        {
            "close_approach_date": "2004-07-10",
            "close_approach_date_full": "2004-Jul-10 06:50",
            "epoch_date_close_approach": 1089442200000,
            "relative_velocity": {
                "kilometers_per_second": "15.0600992167",
                "kilometers_per_hour": "54216.3571799771",
                "miles_per_hour": "33687.9359377474"
            },
            "miss_distance": {
                "astronomical": "0.3129821191",
                "lunar": "121.7500443299",
                "kilometers": "46821458.365446317",
                "miles": "29093505.1445284946"
            },
            "orbiting_body": "Earth"
        },
        {
            "close_approach_date": "2006-09-19",
            "close_approach_date_full": "2006-Sep-19 21:03",
            "epoch_date_close_approach": 1158699780000,
            "relative_velocity": {
                "kilometers_per_second": "6.29316106",
                "kilometers_per_hour": "22655.3798159805",
                "miles_per_hour": "14077.1719751019"
            },
            "miss_distance": {
                "astronomical": "0.0127241677",
                "lunar": "4.9497012353",
                "kilometers": "1903508.385442799",
                "miles": "1182785.2642326662"
            },
            "orbiting_body": "Earth"
        },
        {
            "close_approach_date": "2008-10-30",
            "close_approach_date_full": "2008-Oct-30 05:06",
            "epoch_date_close_approach": 1225343160000,
            "relative_velocity": {
                "kilometers_per_second": "18.2271277621",
                "kilometers_per_hour": "65617.659943672",
                "miles_per_hour": "40772.2620911111"
            },
            "miss_distance": {
                "astronomical": "0.4066222696",
                "lunar": "158.1760628744",
                "kilometers": "60829825.426725752",
                "miles": "37797900.8082172976"
            },
            "orbiting_body": "Earth"
        },
        {
            "close_approach_date": "2064-07-06",
            "close_approach_date_full": "2064-Jul-06 23:36",
            "epoch_date_close_approach": 2982612960000,
            "relative_velocity": {
                "kilometers_per_second": "17.1402688394",
                "kilometers_per_hour": "61704.9678217435",
                "miles_per_hour": "38341.0673667939"
            },
            "miss_distance": {
                "astronomical": "0.3834613627",
                "lunar": "149.1664700903",
                "kilometers": "57365003.087217449",
                "miles": "35644960.0396368362"
            },
            "orbiting_body": "Earth"
        },
        {
            "close_approach_date": "2068-10-25",
            "close_approach_date_full": "2068-Oct-25 22:46",
            "epoch_date_close_approach": 3118430760000,
            "relative_velocity": {
                "kilometers_per_second": "15.6061197555",
                "kilometers_per_hour": "56182.0311199717",
                "miles_per_hour": "34909.3292811847"
            },
            "miss_distance": {
                "astronomical": "0.317993285",
                "lunar": "123.699387865",
                "kilometers": "47571118.11030295",
                "miles": "29559322.10976271"
            },
            "orbiting_body": "Earth"
        }
    ],
    "orbital_data": {
        "orbit_id": "7",
        "orbit_determination_date": "2017-04-06 09:08:03",
        "first_observation_date": "2006-09-26",
        "last_observation_date": "2006-09-30",
        "data_arc_in_days": 4,
        "observations_used": 16,
        "orbit_uncertainty": "8",
        "minimum_orbit_intersection": ".0126979",
        "jupiter_tisserand_invariant": "4.232",
        "epoch_osculation": "2454005.5",
        "eccentricity": ".3816852500997485",
        "semi_major_axis": "1.625001648132134",
        "inclination": "4.730225119181646",
        "ascending_node_longitude": "183.3579641981431",
        "orbital_period": "756.6222972293263",
        "perihelion_distance": "1.004762487652317",
        "perihelion_argument": "159.5910451061799",
        "aphelion_distance": "2.245240808611951",
        "perihelion_time": "2453986.344710704683",
        "mean_anomaly": "9.114064139487059",
        "mean_motion": ".4757988250125371",
        "equinox": "J2000",
        "orbit_class": {
            "orbit_class_type": "APO",
            "orbit_class_description": "Near-Earth asteroid orbits which cross the Earth’s orbit similar to that of 1862 Apollo",
            "orbit_class_range": "a (semi-major axis) > 1.0 AU; q (perihelion) < 1.017 AU"
        }
    },
    "is_sentry_object": false
}